[{"OBJECT_NAME":"O3B FM17","OBJECT_ID":"2019-020C","EPOCH":"2026-03-05T09:01:31.057824","MEAN_MOTION":5.00115476,"ECCENTRICITY":0.0002685,"INCLINATION":0.0393,"RA_OF_ASC_NODE":340.1862,"ARG_OF_PERICENTER":359.0551,"MEAN_ANOMALY":20.7418,"EPHEMERIS_TYPE":0,"CLASSIFICATION_TYPE":"U","NORAD_CAT_ID":44114,"ELEMENT_SET_NO":999,"REV_AT_EPOCH":12633,"BSTAR":0,"MEAN_MOTION_DOT":-2.7e-7,"MEAN_MOTION_DDOT":0},{"OBJECT_NAME":"O3B FM18","OBJECT_ID":"2019-020D","EPOCH":"2026-03-03T12:33:35.684352","MEAN_MOTION":5.00115242,"ECCENTRICITY":0.0002751,"INCLINATION":0.0519,"RA_OF_ASC_NODE":0.0145,"ARG_OF_PERICENTER":341.722,"MEAN_ANOMALY":18.2467,"EPHEMERIS_TYPE":0,"CLASSIFICATION_TYPE":"U","NORAD_CAT_ID":44115,"ELEMENT_SET_NO":999,"REV_AT_EPOCH":12636,"BSTAR":0,"MEAN_MOTION_DOT":-2.8e-7,"MEAN_MOTION_DDOT":0},{"OBJECT_NAME":"SES-17","OBJECT_ID":"2021-095A","EPOCH":"2026-03-05T18:01:29.080128","MEAN_MOTION":1.0027236,"ECCENTRICITY":8.95e-5,"INCLINATION":0.0236,"RA_OF_ASC_NODE":65.1979,"ARG_OF_PERICENTER":278.5951,"MEAN_ANOMALY":22.9549,"EPHEMERIS_TYPE":0,"CLASSIFICATION_TYPE":"U","NORAD_CAT_ID":49332,"ELEMENT_SET_NO":999,"REV_AT_EPOCH":1681,"BSTAR":0,"MEAN_MOTION_DOT":-2.79e-6,"MEAN_MOTION_DDOT":0},{"OBJECT_NAME":"SES-22","OBJECT_ID":"2022-071A","EPOCH":"2026-03-05T15:02:50.631360","MEAN_MOTION":1.00268844,"ECCENTRICITY":0.000108,"INCLINATION":0.0181,"RA_OF_ASC_NODE":163.947,"ARG_OF_PERICENTER":179.8766,"MEAN_ANOMALY":266.2615,"EPHEMERIS_TYPE":0,"CLASSIFICATION_TYPE":"U","NORAD_CAT_ID":52933,"ELEMENT_SET_NO":999,"REV_AT_EPOCH":648,"BSTAR":0,"MEAN_MOTION_DOT":0,"MEAN_MOTION_DDOT":0},{"OBJECT_NAME":"SES-20","OBJECT_ID":"2022-123A","EPOCH":"2026-03-05T08:02:38.801184","MEAN_MOTION":1.00271408,"ECCENTRICITY":0.0001608,"INCLINATION":0.0163,"RA_OF_ASC_NODE":109.4128,"ARG_OF_PERICENTER":314.8769,"MEAN_ANOMALY":116.3178,"EPHEMERIS_TYPE":0,"CLASSIFICATION_TYPE":"U","NORAD_CAT_ID":53960,"ELEMENT_SET_NO":999,"REV_AT_EPOCH":1249,"BSTAR":0,"MEAN_MOTION_DOT":-1.09e-6,"MEAN_MOTION_DDOT":0},{"OBJECT_NAME":"SES-21","OBJECT_ID":"2022-123B","EPOCH":"2026-03-05T15:05:12.902784","MEAN_MOTION":1.00270324,"ECCENTRICITY":9.95e-5,"INCLINATION":0.0273,"RA_OF_ASC_NODE":67.2258,"ARG_OF_PERICENTER":276.67,"MEAN_ANOMALY":274.7654,"EPHEMERIS_TYPE":0,"CLASSIFICATION_TYPE":"U","NORAD_CAT_ID":53961,"ELEMENT_SET_NO":999,"REV_AT_EPOCH":617,"BSTAR":0,"MEAN_MOTION_DOT":6.2e-7,"MEAN_MOTION_DDOT":0},{"OBJECT_NAME":"O3B MPOWER F1","OBJECT_ID":"2022-174A","EPOCH":"2026-03-05T16:16:38.175168","MEAN_MOTION":5.00103107,"ECCENTRICITY":0.0005187,"INCLINATION":0.064,"RA_OF_ASC_NODE":350.9077,"ARG_OF_PERICENTER":10.1156,"MEAN_ANOMALY":139.9725,"EPHEMERIS_TYPE":0,"CLASSIFICATION_TYPE":"U","NORAD_CAT_ID":54755,"ELEMENT_SET_NO":999,"REV_AT_EPOCH":6018,"BSTAR":0,"MEAN_MOTION_DOT":-2.7e-7,"MEAN_MOTION_DDOT":0},{"OBJECT_NAME":"O3B MPOWER F2","OBJECT_ID":"2022-174B","EPOCH":"2026-03-03T12:48:44.541504","MEAN_MOTION":5.00690325,"ECCENTRICITY":0.00461256,"INCLINATION":0.1272,"RA_OF_ASC_NODE":326.2177,"ARG_OF_PERICENTER":76.0907,"MEAN_ANOMALY":318.0389,"EPHEMERIS_TYPE":0,"CLASSIFICATION_TYPE":"U","NORAD_CAT_ID":54756,"ELEMENT_SET_NO":999,"REV_AT_EPOCH":6015,"BSTAR":0,"MEAN_MOTION_DOT":-2.8e-7,"MEAN_MOTION_DDOT":0},{"OBJECT_NAME":"SES-18","OBJECT_ID":"2023-038A","EPOCH":"2026-03-05T15:13:04.651104","MEAN_MOTION":1.00272213,"ECCENTRICITY":0.0002382,"INCLINATION":0.057,"RA_OF_ASC_NODE":272.7768,"ARG_OF_PERICENTER":37.4602,"MEAN_ANOMALY":338.2842,"EPHEMERIS_TYPE":0,"CLASSIFICATION_TYPE":"U","NORAD_CAT_ID":55970,"ELEMENT_SET_NO":999,"REV_AT_EPOCH":1106,"BSTAR":0,"MEAN_MOTION_DOT":-1.08e-6,"MEAN_MOTION_DDOT":0},{"OBJECT_NAME":"SES-19","OBJECT_ID":"2023-038B","EPOCH":"2026-03-05T15:04:05.510784","MEAN_MOTION":1.00273039,"ECCENTRICITY":0.0001712,"INCLINATION":0.0509,"RA_OF_ASC_NODE":289.5985,"ARG_OF_PERICENTER":53.5744,"MEAN_ANOMALY":271.2981,"EPHEMERIS_TYPE":0,"CLASSIFICATION_TYPE":"U","NORAD_CAT_ID":55971,"ELEMENT_SET_NO":999,"REV_AT_EPOCH":1104,"BSTAR":0,"MEAN_MOTION_DOT":8.0e-7,"MEAN_MOTION_DDOT":0},{"OBJECT_NAME":"O3B MPOWER F4","OBJECT_ID":"2023-059A","EPOCH":"2026-02-17T05:46:40.580544","MEAN_MOTION":5.00119607,"ECCENTRICITY":0.00064606,"INCLINATION":0.0593,"RA_OF_ASC_NODE":7.9241,"ARG_OF_PERICENTER":334.3658,"MEAN_ANOMALY":17.6828,"EPHEMERIS_TYPE":0,"CLASSIFICATION_TYPE":"U","NORAD_CAT_ID":56367,"ELEMENT_SET_NO":999,"REV_AT_EPOCH":5260,"BSTAR":0,"MEAN_MOTION_DOT":-1.5e-7,"MEAN_MOTION_DDOT":0},{"OBJECT_NAME":"O3B MPOWER F5","OBJECT_ID":"2023-175A","EPOCH":"2026-03-05T08:46:01.545024","MEAN_MOTION":5.00115737,"ECCENTRICITY":0.0004143,"INCLINATION":0.0399,"RA_OF_ASC_NODE":3.1527,"ARG_OF_PERICENTER":345.6503,"MEAN_ANOMALY":11.1818,"EPHEMERIS_TYPE":0,"CLASSIFICATION_TYPE":"U","NORAD_CAT_ID":58346,"ELEMENT_SET_NO":999,"REV_AT_EPOCH":4424,"BSTAR":0,"MEAN_MOTION_DOT":-2.7e-7,"MEAN_MOTION_DDOT":0},{"OBJECT_NAME":"ASTRA 1P (SES-24)","OBJECT_ID":"2024-115A","EPOCH":"2026-03-04T08:54:38.595456","MEAN_MOTION":1.00273834,"ECCENTRICITY":0.00052742,"INCLINATION":0.0597,"RA_OF_ASC_NODE":335.5167,"ARG_OF_PERICENTER":347.3044,"MEAN_ANOMALY":352.1506,"EPHEMERIS_TYPE":0,"CLASSIFICATION_TYPE":"U","NORAD_CAT_ID":60086,"ELEMENT_SET_NO":999,"REV_AT_EPOCH":614,"BSTAR":0,"MEAN_MOTION_DOT":1.08e-6,"MEAN_MOTION_DDOT":0},{"OBJECT_NAME":"O3B MPOWER F7","OBJECT_ID":"2024-244A","EPOCH":"2026-03-05T07:58:29.887104","MEAN_MOTION":5.0011527,"ECCENTRICITY":0.0006126,"INCLINATION":0.0698,"RA_OF_ASC_NODE":4.8437,"ARG_OF_PERICENTER":338.4892,"MEAN_ANOMALY":16.641,"EPHEMERIS_TYPE":0,"CLASSIFICATION_TYPE":"U","NORAD_CAT_ID":62362,"ELEMENT_SET_NO":999,"REV_AT_EPOCH":2133,"BSTAR":0,"MEAN_MOTION_DOT":-2.7e-7,"MEAN_MOTION_DDOT":0},{"OBJECT_NAME":"O3B MPOWER F8","OBJECT_ID":"2024-244B","EPOCH":"2026-03-05T11:58:47.838720","MEAN_MOTION":5.0011578,"ECCENTRICITY":0.0006619,"INCLINATION":0.0519,"RA_OF_ASC_NODE":316.5692,"ARG_OF_PERICENTER":20.3492,"MEAN_ANOMALY":23.046,"EPHEMERIS_TYPE":0,"CLASSIFICATION_TYPE":"U","NORAD_CAT_ID":62363,"ELEMENT_SET_NO":999,"REV_AT_EPOCH":1568,"BSTAR":0,"MEAN_MOTION_DOT":-2.7e-7,"MEAN_MOTION_DDOT":0}]
