O3B FM17                
1 44114U 19020C   26064.37605391 -.00000027  00000+0  00000+0 0  9996
2 44114   0.0393 340.1862 0002685 359.0551  20.7418  5.00115476126330
O3B FM18                
1 44115U 19020D   26062.52332968 -.00000028  00000+0  00000+0 0  9990
2 44115   0.0519   0.0145 0002751 341.7220  18.2467  5.00115242126362
SES-17                  
1 49332U 21095A   26064.75103102 -.00000279  00000+0  00000+0 0  9992
2 49332   0.0236  65.1979 0000895 278.5951  22.9549  1.00272360 16818
SES-22                  
1 52933U 22071A   26064.62697490  .00000000  00000+0  00000+0 0  9993
2 52933   0.0181 163.9470 0001080 179.8766 266.2615  1.00268844  6486
SES-20                  
1 53960U 22123A   26064.33517131 -.00000109  00000+0  00000+0 0  9994
2 53960   0.0163 109.4128 0001608 314.8769 116.3178  1.00271408 12499
SES-21                  
1 53961U 22123B   26064.62862156  .00000062  00000+0  00000+0 0  9994
2 53961   0.0273  67.2258 0000995 276.6700 274.7654  1.00270324  6177
O3B MPOWER F1           
1 54755U 22174A   26064.67821962 -.00000027  00000+0  00000+0 0  9999
2 54755   0.0640 350.9077 0005187  10.1156 139.9725  5.00103107 60182
O3B MPOWER F2           
1 54756U 22174B   26062.53384886 -.00000028  00000+0  00000+0 0  9993
2 54756   0.1272 326.2177 0046125  76.0907 318.0389  5.00690325 60150
SES-18                  
1 55970U 23038A   26064.63408161 -.00000108  00000+0  00000+0 0  9997
2 55970   0.0570 272.7768 0002382  37.4602 338.2842  1.00272213 11062
SES-19                  
1 55971U 23038B   26064.62784156  .00000080  00000+0  00000+0 0  9996
2 55971   0.0509 289.5985 0001712  53.5744 271.2981  1.00273039 11049
O3B MPOWER F4           
1 56367U 23059A   26048.24074746 -.00000015  00000+0  00000+0 0  9995
2 56367   0.0593   7.9241 0006460 334.3658  17.6828  5.00119607 52601
O3B MPOWER F5           
1 58346U 23175A   26064.36529566 -.00000027  00000+0  00000+0 0  9992
2 58346   0.0399   3.1527 0004143 345.6503  11.1818  5.00115737 44248
ASTRA 1P (SES-24)       
1 60086U 24115A   26063.37128004  .00000108  00000+0  00000+0 0  9992
2 60086   0.0597 335.5167 0005274 347.3044 352.1506  1.00273834  6147
O3B MPOWER F7           
1 62362U 24244A   26064.33229036 -.00000027  00000+0  00000+0 0  9999
2 62362   0.0698   4.8437 0006126 338.4892  16.6410  5.00115270 21330
O3B MPOWER F8           
1 62363U 24244B   26064.49916480 -.00000027  00000+0  00000+0 0  9993
2 62363   0.0519 316.5692 0006619  20.3492  23.0460  5.00115780 15683
